XRISM                   
1 57800U 23137A   24049.28077457  .00006780  00000+0  53049-3 0  9999
2 57800  31.0044  54.9273 0009820 102.7192 257.4542 14.99649981 24662
